{
    "links": {
        "self": "http://www.neowsapp.com/rest/v1/neo/3255979?api_key=iIulBulltgU6a56xZRHN4H3l9WmuAYTsLGpBGhQ2"
    },
    "id": "3255979",
    "neo_reference_id": "3255979",
    "name": "(2004 TN1)",
    "designation": "2004 TN1",
    "nasa_jpl_url": "http://ssd.jpl.nasa.gov/sbdb.cgi?sstr=3255979",
    "absolute_magnitude_h": 21.8,
    "estimated_diameter": {
        "kilometers": {
            "estimated_diameter_min": 0.1160259082,
            "estimated_diameter_max": 0.2594418179
        },
        "meters": {
            "estimated_diameter_min": 116.0259082094,
            "estimated_diameter_max": 259.4418179074
        },
        "miles": {
            "estimated_diameter_min": 0.0720951346,
            "estimated_diameter_max": 0.1612096218
        },
        "feet": {
            "estimated_diameter_min": 380.6624406898,
            "estimated_diameter_max": 851.1870938635
        }
    },
    "is_potentially_hazardous_asteroid": true,
    "close_approach_data": [
        {
            "close_approach_date": "1984-01-11",
            "close_approach_date_full": "1984-Jan-11 12:27",
            "epoch_date_close_approach": 442672020000,
            "relative_velocity": {
                "kilometers_per_second": "5.7167190411",
                "kilometers_per_hour": "20580.1885478902",
                "miles_per_hour": "12787.7288229932"
            },
            "miss_distance": {
                "astronomical": "0.7969832188",
                "lunar": "310.0264721132",
                "kilometers": "119226991.958223956",
                "miles": "74084217.4720283528"
            },
            "orbiting_body": "Juptr"
        },
        {
            "close_approach_date": "2004-11-16",
            "close_approach_date_full": "2004-Nov-16 16:43",
            "epoch_date_close_approach": 1100623380000,
            "relative_velocity": {
                "kilometers_per_second": "12.2295420322",
                "kilometers_per_hour": "44026.3513159585",
                "miles_per_hour": "27356.2625718521"
            },
            "miss_distance": {
                "astronomical": "0.0935379411",
                "lunar": "36.3862590879",
                "kilometers": "13993076.752745457",
                "miles": "8694894.7065310266"
            },
            "orbiting_body": "Earth"
        },
        {
            "close_approach_date": "2007-11-30",
            "close_approach_date_full": "2007-Nov-30 03:35",
            "epoch_date_close_approach": 1196393700000,
            "relative_velocity": {
                "kilometers_per_second": "7.6540620944",
                "kilometers_per_hour": "27554.6235399395",
                "miles_per_hour": "17121.3714990252"
            },
            "miss_distance": {
                "astronomical": "1.4247308519",
                "lunar": "554.2203013891",
                "kilometers": "213136700.767525453",
                "miles": "132437004.6714311314"
            },
            "orbiting_body": "Juptr"
        },
        {
            "close_approach_date": "2114-10-08",
            "close_approach_date_full": "2114-Oct-08 20:44",
            "epoch_date_close_approach": 4568474640000,
            "relative_velocity": {
                "kilometers_per_second": "24.8040332",
                "kilometers_per_hour": "89294.519519996",
                "miles_per_hour": "55484.1418650775"
            },
            "miss_distance": {
                "astronomical": "0.3516251019",
                "lunar": "136.7821646391",
                "kilometers": "52602366.282772953",
                "miles": "32685594.7569466314"
            },
            "orbiting_body": "Earth"
        }
    ],
    "orbital_data": {
        "orbit_id": "18",
        "orbit_determination_date": "2017-04-06 09:12:06",
        "first_observation_date": "2004-10-05",
        "last_observation_date": "2004-11-04",
        "data_arc_in_days": 30,
        "observations_used": 63,
        "orbit_uncertainty": "6",
        "minimum_orbit_intersection": ".00373742",
        "jupiter_tisserand_invariant": "2.924",
        "epoch_osculation": "2459000.5",
        "eccentricity": ".6964838434899117",
        "semi_major_axis": "2.751418498319083",
        "inclination": "8.410572620676241",
        "ascending_node_longitude": "213.8243044425025",
        "orbital_period": "1666.991579472805",
        "perihelion_distance": ".8350999675605671",
        "perihelion_argument": "233.7800180515822",
        "aphelion_distance": "4.6677370290776",
        "perihelion_time": "2458355.124864770048",
        "mean_anomaly": "139.3738585987698",
        "mean_motion": ".2159578995077179",
        "equinox": "J2000",
        "orbit_class": {
            "orbit_class_type": "APO",
            "orbit_class_description": "Near-Earth asteroid orbits which cross the Earth’s orbit similar to that of 1862 Apollo",
            "orbit_class_range": "a (semi-major axis) > 1.0 AU; q (perihelion) < 1.017 AU"
        }
    },
    "is_sentry_object": false
}